OBJECT B                
1 51825U 22019B   24158.56368393  .00014429  00000+0  63807-3 0  9994
2 51825  97.4296 230.0360 0012951 274.8577  85.1180 15.21722282125612
